NORAD_CAT_ID,OBJECT_NAME,OBJECT_TYPE,EPOCH,MEAN_MOTION,ECCENTRICITY,INCLINATION,RA_OF_ASC_NODE,ARG_OF_PERICENTER,MEAN_ANOMALY,BSTAR,MEAN_MOTION_DOT,MEAN_MOTION_DDOT,TLE_LINE0,TLE_LINE1,TLE_LINE2,SEMIMAJOR_AXIS,PERIOD,APOGEE,PERIGEE,DECAYED
53286.0,STARLINK-4165,PAYLOAD,2022-10-10 22:00:01,15.38584696,0.0001942,53.2174,17.8944,34.642,134.4183,-0.030124,-0.01069859,0.0,0 STARLINK-4165,1 53286U 22086AW  22283.91668981 -.01069859  00000-0 -30124-1 0  9998,2 53286  53.2174  17.8944 0001942  34.6420 134.4183 15.38584696  1309,6828.431,93.593,451.622,448.97,0.0
53286.0,STARLINK-4165,PAYLOAD,2022-10-11 06:00:00,15.37824714,0.0001651,53.2174,16.3301,47.9246,167.9418,-0.030825,-0.01067897,0.0,0 STARLINK-4165,1 53286U 22086AW  22284.25001157 -.01067897  00000-0 -30825-1 0  9990,2 53286  53.2174  16.3301 0001651  47.9246 167.9418 15.37824714 12985,6830.68,93.639,453.673,451.417,0.0
53286.0,STARLINK-4165,PAYLOAD,2022-10-11 14:00:01,15.37065159,0.0001921999999999,53.2174,14.7706,35.0485,226.7744,-0.0316139999999999,-0.01068434,0.0,0 STARLINK-4165,1 53286U 22086AW  22284.58334491 -.01068434  00000-0 -31614-1 0  9991,2 53286  53.2174  14.7706 0001922  35.0485 226.7744 15.37065159  1300,6832.93,93.685,456.109,453.482,0.0
53286.0,STARLINK-4165,PAYLOAD,2022-10-11 22:00:00,15.36307726,0.0001802,53.2174,13.2098,32.2799,274.5877,-0.032534,-0.01072428,0.0,0 STARLINK-4165,1 53286U 22086AW  22284.91667824 -.01072428  00000-0 -32534-1 0  9997,2 53286  53.2174  13.2098 0001802  32.2799 274.5877 15.36307726  1308,6835.176,93.731,458.273,455.809,0.0
53286.0,STARLINK-4165,PAYLOAD,2022-10-12 06:00:00,15.35544762,0.0001271,53.2175,11.651,58.2515,292.7495,-0.033109,-0.01065298,0.0,0 STARLINK-4165,1 53286U 22086AW  22285.25001157 -.01065298  00000-0 -33109-1 0  9992,2 53286  53.2175  11.6510 0001271  58.2515 292.7495 15.35544762 13149,6837.44,93.778,460.174,458.436,0.0
53286.0,STARLINK-4165,PAYLOAD,2022-10-12 14:00:01,15.34788529,0.0001405,53.2175,10.0968,50.7144,343.5038,-0.034136,-0.01071445,0.0,0 STARLINK-4165,1 53286U 22086AW  22285.58334491 -.01071445  00000-0 -34136-1 0  9990,2 53286  53.2175  10.0968 0001405  50.7144 343.5038 15.34788529  1306,6839.686,93.824,462.512,460.59,0.0
53286.0,STARLINK-4165,PAYLOAD,2022-10-12 22:00:00,15.3402742,0.0001406,53.2175,8.5413,50.6778,25.8485,-0.03488,-0.01068697,0.0,0 STARLINK-4165,1 53286U 22086AW  22285.91667824 -.01068697  00000-0 -34880-1 0  9997,2 53286  53.2175   8.5413 0001406  50.6778  25.8485 15.34027420  1308,6841.948,93.871,464.775,462.851,0.0
53286.0,STARLINK-4165,PAYLOAD,2022-10-13 06:00:00,15.33266705,0.0001766,53.2176,6.988,40.4962,77.4247,-0.035634,-0.01065992,0.0,0 STARLINK-4165,1 53286U 22086AW  22286.25001157 -.01065992  00000-0 -35634-1 0  9999,2 53286  53.2176   6.9880 0001766  40.4962  77.4247 15.33266705 13290,6844.2109999999975,93.917,467.284,464.867,0.0
53286.0,STARLINK-4165,PAYLOAD,2022-10-13 14:00:01,15.32507575,0.0001878,53.2175,5.4393,40.2892,118.1118,-0.036531,-0.01066805,0.0,0 STARLINK-4165,1 53286U 22086AW  22286.58334491 -.01066805  00000-0 -36531-1 0  9996,2 53286  53.2175   5.4393 0001878  40.2892 118.1118 15.32507575  1307,6846.471,93.964,469.621,467.05,0.0
53286.0,STARLINK-4165,PAYLOAD,2022-10-13 22:00:00,15.31749374,0.0001761999999999,53.2175,3.889,42.4814,155.4888,-0.037501,-0.0106903,0.0,0 STARLINK-4165,1 53286U 22086AW  22286.91667824 -.01069030  00000-0 -37501-1 0  9993,2 53286  53.2175   3.8890 0001762  42.4814 155.4888 15.31749374  1303,6848.73,94.01,471.802,469.388,0.0
53286.0,STARLINK-4165,PAYLOAD,2022-10-14 06:00:00,15.30988535,0.0001874,53.2176,2.3414,38.5109,198.1156,-0.038278,-0.01065746,0.0,0 STARLINK-4165,1 53286U 22086AW  22287.25001157 -.01065746  00000-0 -38278-1 0  9994,2 53286  53.2176   2.3414 0001874  38.5109 198.1156 15.30988535 13440,6850.999,94.057,474.148,471.58,0.0
53286.0,STARLINK-4165,PAYLOAD,2022-10-14 14:00:01,15.3022872,0.0001906999999999,53.2176,0.7979,35.4285,238.9404,-0.039191,-0.01065593,0.0,0 STARLINK-4165,1 53286U 22086AW  22287.58334491 -.01065593  00000-0 -39191-1 0  9995,2 53286  53.2176   0.7979 0001907  35.4285 238.9404 15.30228720  1300,6853.266,94.104,476.43800000000016,473.824,0.0
53286.0,STARLINK-4165,PAYLOAD,2022-10-14 22:00:00,15.29471445,0.0001788,53.2175,359.2528,33.711,277.4891,-0.040313,-0.01070158,0.0,0 STARLINK-4165,1 53286U 22086AW  22287.91667824 -.01070158  00000-0 -40313-1 0  9992,2 53286  53.2175 359.2528 0001788  33.7110 277.4891 15.29471445  1306,6855.528,94.15,478.619,476.167,0.0
53286.0,STARLINK-4165,PAYLOAD,2022-10-15 06:00:00,15.28710251,0.0001613,53.2177,357.7107,39.2735,307.845,-0.041103,-0.01066052,0.0,0 STARLINK-4165,1 53286U 22086AW  22288.25001157 -.01066052  00000-0 -41103-1 0  9997,2 53286  53.2177 357.7107 0001613  39.2735 307.8450 15.28710251 13600,6857.804,94.197,480.775,478.56300000000016,0.0
53286.0,STARLINK-4165,PAYLOAD,2022-10-15 14:00:01,15.27950657,0.0001973,53.2176,356.1725,28.8651,353.2581,-0.042107,-0.01066849,0.0,0 STARLINK-4165,1 53286U 22086AW  22288.58334491 -.01066849  00000-0 -42107-1 0  9992,2 53286  53.2176 356.1725 0001973  28.8651 353.2581 15.27950657  1307,6860.076,94.244,483.295,480.588,0.0
53286.0,STARLINK-4165,PAYLOAD,2022-10-15 22:00:01,15.27190827,0.000149,53.2176,354.6326,45.4855,10.7952,-0.043086,-0.01066442,0.0,0 STARLINK-4165,1 53286U 22086AW  22288.91668981 -.01066442  00000-0 -43086-1 0  9999,2 53286  53.2176 354.6326 0001490  45.4855  10.7952 15.27190827  1304,6862.352,94.291,485.239,483.194,0.0
53286.0,STARLINK-4165,PAYLOAD,2022-10-16 06:00:00,15.26430784,0.0001819,53.2176,353.0961,36.8307,52.5664,-0.044023,-0.01064866,0.0,0 STARLINK-4165,1 53286U 22086AW  22289.25001157 -.01064866  00000-0 -44023-1 0  9993,2 53286  53.2176 353.0961 0001819  36.8307  52.5664 15.26430784 13757,6864.629,94.338,487.74300000000005,485.246,0.0
53286.0,STARLINK-4165,PAYLOAD,2022-10-16 14:00:01,15.25669532,0.0002179,53.2176,351.5632,29.7017,91.9626,-0.044936,-0.01062405,0.0,0 STARLINK-4165,1 53286U 22086AW  22289.58334491 -.01062405  00000-0 -44936-1 0  9999,2 53286  53.2176 351.5632 0002179  29.7017  91.9626 15.25669532  1301,6866.913000000001,94.385,490.274,487.281,0.0
53286.0,STARLINK-4165,PAYLOAD,2022-10-16 22:00:00,15.24911125,0.0002085,53.2176,350.0287,31.9244,121.095,-0.046041,-0.01063711,0.0,0 STARLINK-4165,1 53286U 22086AW  22289.91667824 -.01063711  00000-0 -46041-1 0  9995,2 53286  53.2176 350.0287 0002085  31.9244 121.0950 15.24911125  1306,6869.189,94.432,492.487,489.622,0.0
53286.0,STARLINK-4165,PAYLOAD,2022-10-17 06:00:00,15.24151314,0.0001797,53.2178,348.4977,44.7358,138.7256,-0.0470709999999999,-0.0106292,0.0,0 STARLINK-4165,1 53286U 22086AW  22290.25001157 -.01062920  00000-0 -47071-1 0  9990,2 53286  53.2178 348.4977 0001797  44.7358 138.7256 15.24151314 13901,6871.472,94.479,494.572,492.102,0.0
53286.0,STARLINK-4165,PAYLOAD,2022-10-17 14:00:01,15.23389505,0.0002008,53.2176,346.97,36.5136,176.4771,-0.047962,-0.01058993,0.0,0 STARLINK-4165,1 53286U 22086AW  22290.58334491 -.01058993  00000-0 -47962-1 0  9990,2 53286  53.2176 346.9700 0002008  36.5136 176.4771 15.23389505  1301,6873.763000000001,94.526,497.008,494.247,0.0
53286.0,STARLINK-4165,PAYLOAD,2022-10-17 22:00:00,15.22633056,0.0001916999999999,53.2176,345.4407,36.0314,205.5759,-0.049304,-0.01063873,0.0,0 STARLINK-4165,1 53286U 22086AW  22290.91667824 -.01063873  00000-0 -49304-1 0  9991,2 53286  53.2176 345.4407 0001917  36.0314 205.5759 15.22633056  1302,6876.0390000000025,94.573,499.222,496.586,0.0
53286.0,STARLINK-4165,PAYLOAD,2022-10-18 06:00:00,15.21873145,0.0001885999999999,53.2177,343.9153,36.6103,232.7008,-0.0503819999999999,-0.01062947,0.0,0 STARLINK-4165,1 53286U 22086AW  22291.25001157 -.01062947  00000-0 -50382-1 0  9999,2 53286  53.2177 343.9153 0001886  36.6103 232.7008 15.21873145 14050,6878.328,94.62,501.49,498.896,0.0
53286.0,STARLINK-4165,PAYLOAD,2022-10-18 14:00:01,15.211117300000002,0.000179,53.2176,342.3928,37.7084,258.3939,-0.0513529999999999,-0.01059593,0.0,0 STARLINK-4165,1 53286U 22086AW  22291.58334491 -.01059593  00000-0 -51353-1 0  9997,2 53286  53.2176 342.3928 0001790  37.7084 258.3939 15.21111730  1302,6880.623000000001,94.668,503.72,501.256,0.0
53286.0,STARLINK-4165,PAYLOAD,2022-10-18 22:00:00,15.20353644,0.0001591,53.2176,340.8686,41.3872,280.5948,-0.052682,-0.01062701,0.0,0 STARLINK-4165,1 53286U 22086AW  22291.91667824 -.01062701  00000-0 -52682-1 0  9994,2 53286  53.2176 340.8686 0001591  41.3872 280.5948 15.20353644  1309,6882.91,94.715,505.87,503.68,0.0
53286.0,STARLINK-4165,PAYLOAD,2022-10-19 06:00:00,15.19605263,0.0001764999999999,53.2175,339.3474,35.5106,311.4328,-0.0547039999999999,-0.01091974,0.0,0 STARLINK-4165,1 53286U 22086AW  22292.25001157 -.01091974  00000-0 -54704-1 0  9994,2 53286  53.2175 339.3474 0001765  35.5106 311.4328 15.19605263 14219,6885.17,94.761,508.25,505.819,0.0
53286.0,STARLINK-4165,PAYLOAD,2022-10-19 14:00:01,15.18833554,0.0001851,53.2175,337.8315,32.3184,338.6821,-0.0549309999999999,-0.01060167,0.0,0 STARLINK-4165,1 53286U 22086AW  22292.58334491 -.01060167  00000-0 -54931-1 0  9992,2 53286  53.2175 337.8315 0001851  32.3184 338.6821 15.18833554  1303,6887.502,94.81,510.642,508.092,0.0
53286.0,STARLINK-4165,PAYLOAD,2022-10-19 22:00:00,15.18074591,0.0001758,53.2175,336.3128,34.3606,359.7818,-0.0562519999999999,-0.01075257,0.0,0 STARLINK-4165,1 53286U 22086AW  22292.91667824 -.01075257  00000-0 -56252-1 0  9992,2 53286  53.2175 336.3128 0001758  34.3606 359.7818 15.18074591  1304,6889.797,94.857,512.873,510.451,0.0
53286.0,STARLINK-4165,PAYLOAD,2022-10-20 14:00:01,15.1655397,0.0001889,53.2174,333.2862,34.6195,43.0657,-0.05857,-0.01071815,0.0,0 STARLINK-4165,1 53286U 22086AW  22293.58334491 -.01071815  00000-0 -58570-1 0  9998,2 53286  53.2174 333.2862 0001889  34.6195  43.0657 15.16553970 14416,6894.401999999999,94.952,517.569,514.965,0.0
